start=new Date('2022-12-21T00:00:00.000Z').valueOf();
sats=[{"DECAY_DATE":null,"RA_OF_ASC_NODE":"23.4993","CENTER_NAME":"EARTH","MEAN_MOTION_DDOT":"0.0000000000000","TLE_LINE2":"2 49738  53.2166  23.4993 0002887  27.1868 332.9274 15.08843189 59273","EPHEMERIS_TYPE":"0","MEAN_MOTION_DOT":"0.00000294","BSTAR":"0.00003658300000","EPOCH":"2022-12-20T18:41:14.246304","MEAN_ANOMALY":"332.9274","REF_FRAME":"TEME","MEAN_MOTION":"15.08843189","LAUNCH_DATE":"2021-12-02","NORAD_CAT_ID":"49738","GP_ID":"221046618","FILE":"3714238","TIME_SYSTEM":"UTC","SEMIMAJOR_AXIS":"6917.871","REV_AT_EPOCH":"5927","OBJECT_ID":"2021-115Q","MEAN_ELEMENT_THEORY":"SGP4","SITE":"AFETR","ARG_OF_PERICENTER":"27.1868","COUNTRY_CODE":"US","RCS_SIZE":"LARGE","TLE_LINE1":"1 49738U 21115Q   22354.77863711  .00000294  00000-0  36583-4 0  9991","PERIOD":"95.437","PERIAPSIS":"537.738","INCLINATION":"53.2166","APOAPSIS":"541.733","ECCENTRICITY":"0.00028870","ELEMENT_SET_NO":"999","OBJECT_NAME":"STARLINK-3143","OBJECT_TYPE":"PAYLOAD","CLASSIFICATION_TYPE":"U"},{"NORAD_CAT_ID":"49739","LAUNCH_DATE":"2021-12-02","GP_ID":"221028443","TIME_SYSTEM":"UTC","FILE":"3713130","REF_FRAME":"TEME","MEAN_MOTION":"15.08837675","CENTER_NAME":"EARTH","MEAN_MOTION_DDOT":"0.0000000000000","TLE_LINE2":"2 49739  53.2151  34.7873 0001545  71.2958 288.8202 15.08837675 57978","EPHEMERIS_TYPE":"0","BSTAR":"0.00084086000000","MEAN_MOTION_DOT":"0.00013119","EPOCH":"2022-12-20T11:51:53.573184","MEAN_ANOMALY":"288.8202","DECAY_DATE":null,"RA_OF_ASC_NODE":"34.7873","ELEMENT_SET_NO":"999","ECCENTRICITY":"0.00015450","OBJECT_NAME":"STARLINK-3155","OBJECT_TYPE":"PAYLOAD","CLASSIFICATION_TYPE":"U","PERIAPSIS":"538.684","INCLINATION":"53.2151","APOAPSIS":"540.821","SITE":"AFETR","ARG_OF_PERICENTER":"71.2958","COUNTRY_CODE":"US","RCS_SIZE":"LARGE","TLE_LINE1":"1 49739U 21115R   22354.49437006  .00013119  00000-0  84086-3 0  9995","PERIOD":"95.438","SEMIMAJOR_AXIS":"6917.887","OBJECT_ID":"2021-115R","REV_AT_EPOCH":"5797","MEAN_ELEMENT_THEORY":"SGP4"},{"SEMIMAJOR_AXIS":"6917.885","OBJECT_ID":"2021-115S","REV_AT_EPOCH":"5812","MEAN_ELEMENT_THEORY":"SGP4","SITE":"AFETR","ARG_OF_PERICENTER":"26.8143","COUNTRY_CODE":"US","RCS_SIZE":"LARGE","TLE_LINE1":"1 49740U 21115S   22354.52472380  .00001227  00000-0  95224-4 0  9999","PERIOD":"95.438","PERIAPSIS":"537.973","INCLINATION":"53.2179","APOAPSIS":"541.526","ECCENTRICITY":"0.00025680","ELEMENT_SET_NO":"999","OBJECT_NAME":"STARLINK-3226","OBJECT_TYPE":"PAYLOAD","CLASSIFICATION_TYPE":"U","DECAY_DATE":null,"RA_OF_ASC_NODE":"24.6392","CENTER_NAME":"EARTH","MEAN_MOTION_DDOT":"0.0000000000000","TLE_LINE2":"2 49740  53.2179  24.6392 0002568  26.8143 333.2981 15.08838645 58127","EPHEMERIS_TYPE":"0","BSTAR":"0.00009522400000","MEAN_MOTION_DOT":"0.00001227","EPOCH":"2022-12-20T12:35:36.136320","MEAN_ANOMALY":"333.2981","REF_FRAME":"TEME","MEAN_MOTION":"15.08838645","NORAD_CAT_ID":"49740","LAUNCH_DATE":"2021-12-02","GP_ID":"221027191","FILE":"3713130","TIME_SYSTEM":"UTC"},{"PERIAPSIS":"537.581","APOAPSIS":"541.864","INCLINATION":"53.2184","CLASSIFICATION_TYPE":"U","OBJECT_NAME":"STARLINK-3244","ELEMENT_SET_NO":"999","ECCENTRICITY":"0.00030950","OBJECT_TYPE":"PAYLOAD","MEAN_ELEMENT_THEORY":"SGP4","SEMIMAJOR_AXIS":"6917.857","REV_AT_EPOCH":"5929","OBJECT_ID":"2021-115T","RCS_SIZE":"LARGE","COUNTRY_CODE":"US","PERIOD":"95.437","TLE_LINE1":"1 49741U 21115T   22354.91481342  .00009651  00000-0  62351-3 0  9994","ARG_OF_PERICENTER":"27.1168","SITE":"AFETR","MEAN_MOTION":"15.08847506","REF_FRAME":"TEME","TIME_SYSTEM":"UTC","FILE":"3714249","LAUNCH_DATE":"2021-12-02","NORAD_CAT_ID":"49741","GP_ID":"221047225","DECAY_DATE":null,"RA_OF_ASC_NODE":"22.8856","BSTAR":"0.00062351000000","MEAN_MOTION_DOT":"0.00009651","EPOCH":"2022-12-20T21:57:19.879488","EPHEMERIS_TYPE":"0","MEAN_ANOMALY":"332.9985","MEAN_MOTION_DDOT":"0.0000000000000","CENTER_NAME":"EARTH","TLE_LINE2":"2 49741  53.2184  22.8856 0003095  27.1168 332.9985 15.08847506 59291"},{"OBJECT_TYPE":"PAYLOAD","ECCENTRICITY":"0.00026670","ELEMENT_SET_NO":"999","OBJECT_NAME":"STARLINK-3202","CLASSIFICATION_TYPE":"U","INCLINATION":"53.2182","APOAPSIS":"541.573","PERIAPSIS":"537.883","ARG_OF_PERICENTER":"29.4549","SITE":"AFETR","TLE_LINE1":"1 49742U 21115U   22354.46583726  .00000252  00000-0  33930-4 0  9994","PERIOD":"95.437","COUNTRY_CODE":"US","RCS_SIZE":"LARGE","OBJECT_ID":"2021-115U","REV_AT_EPOCH":"5811","SEMIMAJOR_AXIS":"6917.863","MEAN_ELEMENT_THEORY":"SGP4","GP_ID":"221028193","NORAD_CAT_ID":"49742","LAUNCH_DATE":"2021-12-02","FILE":"3713130","TIME_SYSTEM":"UTC","REF_FRAME":"TEME","MEAN_MOTION":"15.08845646","TLE_LINE2":"2 49742  53.2182  24.9072 0002667  29.4549 330.6593 15.08845646 58118","CENTER_NAME":"EARTH","MEAN_MOTION_DDOT":"0.0000000000000","MEAN_ANOMALY":"330.6593","EPHEMERIS_TYPE":"0","MEAN_MOTION_DOT":"0.00000252","BSTAR":"0.00003393000000","EPOCH":"2022-12-20T11:10:48.339264","RA_OF_ASC_NODE":"24.9072","DECAY_DATE":null},{"FILE":"3713130","TIME_SYSTEM":"UTC","GP_ID":"221028944","LAUNCH_DATE":"2021-12-02","NORAD_CAT_ID":"49743","MEAN_MOTION":"15.08855988","REF_FRAME":"TEME","MEAN_ANOMALY":"335.6429","EPHEMERIS_TYPE":"0","MEAN_MOTION_DOT":"-0.00000159","EPOCH":"2022-12-20T12:30:17.224416","BSTAR":"0.00000814290000","TLE_LINE2":"2 49743  53.2166  24.6605 0002467  24.4680 335.6429 15.08855988 58123","CENTER_NAME":"EARTH","MEAN_MOTION_DDOT":"0.0000000000000","RA_OF_ASC_NODE":"24.6605","DECAY_DATE":null,"CLASSIFICATION_TYPE":"U","OBJECT_TYPE":"PAYLOAD","ELEMENT_SET_NO":"999","ECCENTRICITY":"0.00024670","OBJECT_NAME":"STARLINK-3239","INCLINATION":"53.2166","APOAPSIS":"541.403","PERIAPSIS":"537.990","PERIOD":"95.437","TLE_LINE1":"1 49743U 21115V   22354.52103269 -.00000159  00000-0  81429-5 0  9996","COUNTRY_CODE":"US","RCS_SIZE":"LARGE","SITE":"AFETR","ARG_OF_PERICENTER":"24.4680","MEAN_ELEMENT_THEORY":"SGP4","OBJECT_ID":"2021-115V","REV_AT_EPOCH":"5812","SEMIMAJOR_AXIS":"6917.832"},{"INCLINATION":"53.2175","APOAPSIS":"541.589","PERIAPSIS":"537.834","OBJECT_TYPE":"PAYLOAD","ELEMENT_SET_NO":"999","ECCENTRICITY":"0.00027140","OBJECT_NAME":"STARLINK-3231","CLASSIFICATION_TYPE":"U","OBJECT_ID":"2021-115W","REV_AT_EPOCH":"5927","SEMIMAJOR_AXIS":"6917.846","MEAN_ELEMENT_THEORY":"SGP4","SITE":"AFETR","ARG_OF_PERICENTER":"22.5215","PERIOD":"95.437","TLE_LINE1":"1 49744U 21115W   22354.80439871 -.00003478  00000-0 -20041-3 0  9998","COUNTRY_CODE":"US","RCS_SIZE":"MEDIUM","REF_FRAME":"TEME","MEAN_MOTION":"15.08851206","GP_ID":"221046783","NORAD_CAT_ID":"49744","LAUNCH_DATE":"2021-12-02","TIME_SYSTEM":"UTC","FILE":"3714248","RA_OF_ASC_NODE":"23.3809","DECAY_DATE":null,"TLE_LINE2":"2 49744  53.2175  23.3809 0002714  22.5215 337.5896 15.08851206 59279","CENTER_NAME":"EARTH","MEAN_MOTION_DDOT":"0.0000000000000","MEAN_ANOMALY":"337.5896","EPHEMERIS_TYPE":"0","MEAN_MOTION_DOT":"-0.00003478","EPOCH":"2022-12-20T19:18:20.048544","BSTAR":"-0.00020041000000"},{"DECAY_DATE":null,"RA_OF_ASC_NODE":"23.4449","CENTER_NAME":"EARTH","MEAN_MOTION_DDOT":"0.0000000000000","TLE_LINE2":"2 49745  53.2179  23.4449 0002650  28.8741 331.2398 15.08835408 59271","EPHEMERIS_TYPE":"0","MEAN_MOTION_DOT":"0.00001056","EPOCH":"2022-12-20T19:02:26.334240","BSTAR":"0.00008447500000","MEAN_ANOMALY":"331.2398","REF_FRAME":"TEME","MEAN_MOTION":"15.08835408","LAUNCH_DATE":"2021-12-02","NORAD_CAT_ID":"49745","GP_ID":"221046807","TIME_SYSTEM":"UTC","FILE":"3714261","SEMIMAJOR_AXIS":"6917.894","REV_AT_EPOCH":"5927","OBJECT_ID":"2021-115X","MEAN_ELEMENT_THEORY":"SGP4","ARG_OF_PERICENTER":"28.8741","SITE":"AFETR","COUNTRY_CODE":"US","RCS_SIZE":"LARGE","TLE_LINE1":"1 49745U 21115X   22354.79336035  .00001056  00000-0  84475-4 0  9995","PERIOD":"95.438","PERIAPSIS":"537.926","INCLINATION":"53.2179","APOAPSIS":"541.593","ELEMENT_SET_NO":"999","ECCENTRICITY":"0.00026500","OBJECT_NAME":"STARLINK-3241","OBJECT_TYPE":"PAYLOAD","CLASSIFICATION_TYPE":"U"},{"MEAN_ELEMENT_THEORY":"SGP4","REV_AT_EPOCH":"5928","OBJECT_ID":"2021-115Y","SEMIMAJOR_AXIS":"6917.853","PERIOD":"95.437","TLE_LINE1":"1 49746U 21115Y   22354.87799415  .00000860  00000-0  72145-4 0  9993","RCS_SIZE":"MEDIUM","COUNTRY_CODE":"US","ARG_OF_PERICENTER":"29.9176","SITE":"AFETR","APOAPSIS":"541.564","INCLINATION":"53.2173","PERIAPSIS":"537.872","CLASSIFICATION_TYPE":"U","OBJECT_TYPE":"PAYLOAD","OBJECT_NAME":"STARLINK-3233","ECCENTRICITY":"0.00026680","ELEMENT_SET_NO":"999","RA_OF_ASC_NODE":"23.0454","DECAY_DATE":null,"MEAN_ANOMALY":"330.1968","EPOCH":"2022-12-20T21:04:18.694560","MEAN_MOTION_DOT":"0.00000860","BSTAR":"0.00007214500000","EPHEMERIS_TYPE":"0","TLE_LINE2":"2 49746  53.2173  23.0454 0002668  29.9176 330.1968 15.08849004 59280","MEAN_MOTION_DDOT":"0.0000000000000","CENTER_NAME":"EARTH","MEAN_MOTION":"15.08849004","REF_FRAME":"TEME","FILE":"3714261","TIME_SYSTEM":"UTC","GP_ID":"221047232","LAUNCH_DATE":"2021-12-02","NORAD_CAT_ID":"49746"},{"SITE":"AFETR","ARG_OF_PERICENTER":"27.6638","RCS_SIZE":"LARGE","COUNTRY_CODE":"US","PERIOD":"95.437","TLE_LINE1":"1 49747U 21115Z   22354.46951586  .00000711  00000-0  62759-4 0  9993","SEMIMAJOR_AXIS":"6917.860","REV_AT_EPOCH":"5811","OBJECT_ID":"2021-115Z","MEAN_ELEMENT_THEORY":"SGP4","OBJECT_NAME":"STARLINK-3247","ECCENTRICITY":"0.00027190","ELEMENT_SET_NO":"999","OBJECT_TYPE":"PAYLOAD","CLASSIFICATION_TYPE":"U","PERIAPSIS":"537.844","APOAPSIS":"541.606","INCLINATION":"53.2194","MEAN_MOTION_DDOT":"0.0000000000000","CENTER_NAME":"EARTH","TLE_LINE2":"2 49747  53.2194  24.8914 0002719  27.6638 332.4498 15.08846710 58114","MEAN_MOTION_DOT":"0.00000711","EPOCH":"2022-12-20T11:16:06.170304","BSTAR":"0.00006275900000","EPHEMERIS_TYPE":"0","MEAN_ANOMALY":"332.4498","DECAY_DATE":null,"RA_OF_ASC_NODE":"24.8914","LAUNCH_DATE":"2021-12-02","NORAD_CAT_ID":"49747","GP_ID":"221028444","TIME_SYSTEM":"UTC","FILE":"3713130","REF_FRAME":"TEME","MEAN_MOTION":"15.08846710"}];
